GLOBALSTAR M024         
1 25883U 99043A   24183.94628587 -.00000051  00000+0  49018-3 0  9999
2 25883  52.0011  90.8816 0001007 272.3155 170.5579 11.10156383 75962
GLOBALSTAR M027         
1 25884U 99043B   24183.94100529 -.00000085  00000+0 -79480-3 0  9995
2 25884  52.0176 158.9527 0020942 145.8047 214.4099 11.04368934102543
GLOBALSTAR M054         
1 25885U 99043C   24183.87915093  .00000009  00000+0  20393-2 0  9990
2 25885  52.0164 345.1788 0004217 306.1149 205.2969 11.39205267 79120
GLOBALSTAR M053         
1 25886U 99043D   24183.96382632 -.00000044  00000+0  72287-3 0  9998
2 25886  51.9982 272.6424 0003918 202.3718 328.7892 11.27656461 79932
GLOBALSTAR M058         
1 25907U 99049A   24183.89455649 -.00000137  00000+0 -70636-3 0  9999
2 25907  51.9964 324.5347 0001634 331.9251  28.1495 11.93180920499729
GLOBALSTAR M050         
1 25908U 99049B   24183.90320963  .00000010  00000+0  11041-2 0  9994
2 25908  52.0009 358.3561 0009786  57.3582  91.1898 12.07435130105876
GLOBALSTAR M033         
1 25909U 99049C   24184.18546799 -.00000095  00000+0 -37101-4 0  9995
2 25909  51.9904 253.5934 0012403 265.4521  94.4909 12.20273314125739
GLOBALSTAR M055         
1 25910U 99049D   24183.68605943 -.00000074  00000+0  17525-3 0  9991
2 25910  52.0022 282.8024 0007674 124.6482 235.5094 12.29403529125178
